{"type": "FeatureCollection", "name": "zigui-village-points", "features": [{"type": "Feature", "geometry": {"type": "Point", "coordinates": [110.961863, 30.831517]}, "properties": {"fullname": "湖北省宜昌市秭归县茅坪镇滨湖社区居民委员会", "cuncode": "420527000000", "sheng": "湖北省", "shi": "宜昌市", "xian": "秭归县", "xiang": "茅坪镇", "cun": "滨湖社区居民委员会"}}, {"type": "Feature", "geometry": {"type": "Point", "coordinates": [110.965082, 30.825372]}, "properties": {"fullname": "湖北省宜昌市秭归县茅坪镇西楚社区居民委员会", "cuncode": "420527000000", "sheng": "湖北省", "shi": "宜昌市", "xian": "秭归县", "xiang": "茅坪镇", "cun": "西楚社区居民委员会"}}, {"type": "Feature", "geometry": {"type": "Point", "coordinates": [110.974865, 30.822008]}, "properties": {"fullname": "湖北省宜昌市秭归县茅坪镇橘颂社区居民委员会", "cuncode": "420527000000", "sheng": "湖北省", "shi": "宜昌市", "xian": "秭归县", "xiang": "茅坪镇", "cun": "橘颂社区居民委员会"}}, {"type": "Feature", "geometry": {"type": "Point", "coordinates": [110.961869, 30.831575]}, "properties": {"fullname": "湖北省宜昌市秭归县茅坪镇丹阳社区居民委员会", "cuncode": "420527000000", "sheng": "湖北省", "shi": "宜昌市", "xian": "秭归县", "xiang": "茅坪镇", "cun": "丹阳社区居民委员会"}}, {"type": "Feature", "geometry": {"type": "Point", "coordinates": [110.961863, 30.831517]}, "properties": {"fullname": "湖北省宜昌市秭归县茅坪镇长宁社区居民委员会", "cuncode": "420527000000", "sheng": "湖北省", "shi": "宜昌市", "xian": "秭归县", "xiang": "茅坪镇", "cun": "长宁社区居民委员会"}}, {"type": "Feature", "geometry": {"type": "Point", "coordinates": [110.961863, 30.831517]}, "properties": {"fullname": "湖北省宜昌市秭归县茅坪镇南郡社区居民委员会", "cuncode": "420527000000", "sheng": "湖北省", "shi": "宜昌市", "xian": "秭归县", "xiang": "茅坪镇", "cun": "南郡社区居民委员会"}}, {"type": "Feature", "geometry": {"type": "Point", "coordinates": [110.961863, 30.831517]}, "properties": {"fullname": "湖北省宜昌市秭归县茅坪镇龙舟社区居民委员会", "cuncode": "420527000000", "sheng": "湖北省", "shi": "宜昌市", "xian": "秭归县", "xiang": "茅坪镇", "cun": "龙舟社区居民委员会"}}, {"type": "Feature", "geometry": {"type": "Point", "coordinates": [110.961863, 30.831517]}, "properties": {"fullname": "湖北省宜昌市秭归县茅坪镇建平社区居民委员会", "cuncode": "420527000000", "sheng": "湖北省", "shi": "宜昌市", "xian": "秭归县", "xiang": "茅坪镇", "cun": "建平社区居民委员会"}}, {"type": "Feature", "geometry": {"type": "Point", "coordinates": [110.958324, 30.834383]}, "properties": {"fullname": "湖北省宜昌市秭归县茅坪镇金缸城村村民委员会", "cuncode": "420527000000", "sheng": "湖北省", "shi": "宜昌市", "xian": "秭归县", "xiang": "茅坪镇", "cun": "金缸城村村民委员会"}}, {"type": "Feature", "geometry": {"type": "Point", "coordinates": [110.95594, 30.866443]}, "properties": {"fullname": "湖北省宜昌市秭归县茅坪镇银杏沱村村民委员会", "cuncode": "420527000000", "sheng": "湖北省", "shi": "宜昌市", "xian": "秭归县", "xiang": "茅坪镇", "cun": "银杏沱村村民委员会"}}, {"type": "Feature", "geometry": {"type": "Point", "coordinates": [110.926082, 30.843891]}, "properties": {"fullname": "湖北省宜昌市秭归县茅坪镇长岭村村民委员会", "cuncode": "420527000000", "sheng": "湖北省", "shi": "宜昌市", "xian": "秭归县", "xiang": "茅坪镇", "cun": "长岭村村民委员会"}}, {"type": "Feature", "geometry": {"type": "Point", "coordinates": [110.96573, 30.819102]}, "properties": {"fullname": "湖北省宜昌市秭归县茅坪镇陈家冲村村民委员会", "cuncode": "420527000000", "sheng": "湖北省", "shi": "宜昌市", "xian": "秭归县", "xiang": "茅坪镇", "cun": "陈家冲村村民委员会"}}, {"type": "Feature", "geometry": {"type": "Point", "coordinates": [110.977421, 30.808402]}, "properties": {"fullname": "湖北省宜昌市秭归县茅坪镇九里村村民委员会", "cuncode": "420527000000", "sheng": "湖北省", "shi": "宜昌市", "xian": "秭归县", "xiang": "茅坪镇", "cun": "九里村村民委员会"}}, {"type": "Feature", "geometry": {"type": "Point", "coordinates": [110.982632, 30.805359]}, "properties": {"fullname": "湖北省宜昌市秭归县茅坪镇杨贵店村村民委员会", "cuncode": "420527000000", "sheng": "湖北省", "shi": "宜昌市", "xian": "秭归县", "xiang": "茅坪镇", "cun": "杨贵店村村民委员会"}}, {"type": "Feature", "geometry": {"type": "Point", "coordinates": [110.95268, 30.781227]}, "properties": {"fullname": "湖北省宜昌市秭归县茅坪镇陈家坝村村民委员会", "cuncode": "420527000000", "sheng": "湖北省", "shi": "宜昌市", "xian": "秭归县", "xiang": "茅坪镇", "cun": "陈家坝村村民委员会"}}, {"type": "Feature", "geometry": {"type": "Point", "coordinates": [110.961271, 30.778766]}, "properties": {"fullname": "湖北省宜昌市秭归县茅坪镇建东村村民委员会", "cuncode": "420527000000", "sheng": "湖北省", "shi": "宜昌市", "xian": "秭归县", "xiang": "茅坪镇", "cun": "建东村村民委员会"}}, {"type": "Feature", "geometry": {"type": "Point", "coordinates": [110.969452, 30.773618]}, "properties": {"fullname": "湖北省宜昌市秭归县茅坪镇溪口坪村村民委员会", "cuncode": "420527000000", "sheng": "湖北省", "shi": "宜昌市", "xian": "秭归县", "xiang": "茅坪镇", "cun": "溪口坪村村民委员会"}}, {"type": "Feature", "geometry": {"type": "Point", "coordinates": [110.968177, 30.825569]}, "properties": {"fullname": "湖北省宜昌市秭归县茅坪镇四溪村村民委员会", "cuncode": "420527000000", "sheng": "湖北省", "shi": "宜昌市", "xian": "秭归县", "xiang": "茅坪镇", "cun": "四溪村村民委员会"}}, {"type": "Feature", "geometry": {"type": "Point", "coordinates": [110.957461, 30.734878]}, "properties": {"fullname": "湖北省宜昌市秭归县茅坪镇乔家坪村村民委员会", "cuncode": "420527000000", "sheng": "湖北省", "shi": "宜昌市", "xian": "秭归县", "xiang": "茅坪镇", "cun": "乔家坪村村民委员会"}}, {"type": "Feature", "geometry": {"type": "Point", "coordinates": [110.943751, 30.813199]}, "properties": {"fullname": "湖北省宜昌市秭归县茅坪镇花果园村村民委员会", "cuncode": "420527000000", "sheng": "湖北省", "shi": "宜昌市", "xian": "秭归县", "xiang": "茅坪镇", "cun": "花果园村村民委员会"}}, {"type": "Feature", "geometry": {"type": "Point", "coordinates": [110.940105, 30.794887]}, "properties": {"fullname": "湖北省宜昌市秭归县茅坪镇月亮包村村民委员会", "cuncode": "420527000000", "sheng": "湖北省", "shi": "宜昌市", "xian": "秭归县", "xiang": "茅坪镇", "cun": "月亮包村村民委员会"}}, {"type": "Feature", "geometry": {"type": "Point", "coordinates": [110.908905, 30.79796]}, "properties": {"fullname": "湖北省宜昌市秭归县茅坪镇罗家村村民委员会", "cuncode": "420527000000", "sheng": "湖北省", "shi": "宜昌市", "xian": "秭归县", "xiang": "茅坪镇", "cun": "罗家村村民委员会"}}, {"type": "Feature", "geometry": {"type": "Point", "coordinates": [110.931828, 30.860765]}, "properties": {"fullname": "湖北省宜昌市秭归县茅坪镇松树坳村村民委员会", "cuncode": "420527000000", "sheng": "湖北省", "shi": "宜昌市", "xian": "秭归县", "xiang": "茅坪镇", "cun": "松树坳村村民委员会"}}, {"type": "Feature", "geometry": {"type": "Point", "coordinates": [110.91687, 30.858834]}, "properties": {"fullname": "湖北省宜昌市秭归县茅坪镇中坝子村村民委员会", "cuncode": "420527000000", "sheng": "湖北省", "shi": "宜昌市", "xian": "秭归县", "xiang": "茅坪镇", "cun": "中坝子村村民委员会"}}, {"type": "Feature", "geometry": {"type": "Point", "coordinates": [110.913741, 30.871295]}, "properties": {"fullname": "湖北省宜昌市秭归县茅坪镇兰陵溪村村民委员会", "cuncode": "420527000000", "sheng": "湖北省", "shi": "宜昌市", "xian": "秭归县", "xiang": "茅坪镇", "cun": "兰陵溪村村民委员会"}}, {"type": "Feature", "geometry": {"type": "Point", "coordinates": [110.881928, 30.898407]}, "properties": {"fullname": "湖北省宜昌市秭归县茅坪镇庙河村村民委员会", "cuncode": "420527000000", "sheng": "湖北省", "shi": "宜昌市", "xian": "秭归县", "xiang": "茅坪镇", "cun": "庙河村村民委员会"}}, {"type": "Feature", "geometry": {"type": "Point", "coordinates": [110.712757, 30.984566]}, "properties": {"fullname": "湖北省宜昌市秭归县归州镇归州社区居民委员会", "cuncode": "420527000000", "sheng": "湖北省", "shi": "宜昌市", "xian": "秭归县", "xiang": "归州镇", "cun": "归州社区居民委员会"}}, {"type": "Feature", "geometry": {"type": "Point", "coordinates": [110.695472, 31.006965]}, "properties": {"fullname": "湖北省宜昌市秭归县归州镇彭家坡村村民委员会", "cuncode": "420527000000", "sheng": "湖北省", "shi": "宜昌市", "xian": "秭归县", "xiang": "归州镇", "cun": "彭家坡村村民委员会"}}, {"type": "Feature", "geometry": {"type": "Point", "coordinates": [110.708154, 30.981934]}, "properties": {"fullname": "湖北省宜昌市秭归县归州镇屈原庙村村民委员会", "cuncode": "420527000000", "sheng": "湖北省", "shi": "宜昌市", "xian": "秭归县", "xiang": "归州镇", "cun": "屈原庙村村民委员会"}}, {"type": "Feature", "geometry": {"type": "Point", "coordinates": [110.726744, 31.018017]}, "properties": {"fullname": "湖北省宜昌市秭归县归州镇向家湾村村民委员会", "cuncode": "420527000000", "sheng": "湖北省", "shi": "宜昌市", "xian": "秭归县", "xiang": "归州镇", "cun": "向家湾村村民委员会"}}, {"type": "Feature", "geometry": {"type": "Point", "coordinates": [110.756394, 30.967554]}, "properties": {"fullname": "湖北省宜昌市秭归县归州镇香溪村村民委员会", "cuncode": "420527000000", "sheng": "湖北省", "shi": "宜昌市", "xian": "秭归县", "xiang": "归州镇", "cun": "香溪村村民委员会"}}, {"type": "Feature", "geometry": {"type": "Point", "coordinates": [110.756962, 30.987977]}, "properties": {"fullname": "湖北省宜昌市秭归县归州镇向家店村村民委员会", "cuncode": "420527000000", "sheng": "湖北省", "shi": "宜昌市", "xian": "秭归县", "xiang": "归州镇", "cun": "向家店村村民委员会"}}, {"type": "Feature", "geometry": {"type": "Point", "coordinates": [110.736279, 30.970682]}, "properties": {"fullname": "湖北省宜昌市秭归县归州镇周家湾村村民委员会", "cuncode": "420527000000", "sheng": "湖北省", "shi": "宜昌市", "xian": "秭归县", "xiang": "归州镇", "cun": "周家湾村村民委员会"}}, {"type": "Feature", "geometry": {"type": "Point", "coordinates": [110.752276, 31.027521]}, "properties": {"fullname": "湖北省宜昌市秭归县归州镇官庄坪村村民委员会", "cuncode": "420527000000", "sheng": "湖北省", "shi": "宜昌市", "xian": "秭归县", "xiang": "归州镇", "cun": "官庄坪村村民委员会"}}, {"type": "Feature", "geometry": {"type": "Point", "coordinates": [110.75133, 31.034373]}, "properties": {"fullname": "湖北省宜昌市秭归县归州镇盐关村村民委员会", "cuncode": "420527000000", "sheng": "湖北省", "shi": "宜昌市", "xian": "秭归县", "xiang": "归州镇", "cun": "盐关村村民委员会"}}, {"type": "Feature", "geometry": {"type": "Point", "coordinates": [110.756867, 31.019883]}, "properties": {"fullname": "湖北省宜昌市秭归县归州镇万古寺村村民委员会", "cuncode": "420527000000", "sheng": "湖北省", "shi": "宜昌市", "xian": "秭归县", "xiang": "归州镇", "cun": "万古寺村村民委员会"}}, {"type": "Feature", "geometry": {"type": "Point", "coordinates": [110.741952, 31.085538]}, "properties": {"fullname": "湖北省宜昌市秭归县归州镇白果园村村民委员会", "cuncode": "420527000000", "sheng": "湖北省", "shi": "宜昌市", "xian": "秭归县", "xiang": "归州镇", "cun": "白果园村村民委员会"}}, {"type": "Feature", "geometry": {"type": "Point", "coordinates": [110.761767, 31.078793]}, "properties": {"fullname": "湖北省宜昌市秭归县归州镇贾家店村村民委员会", "cuncode": "420527000000", "sheng": "湖北省", "shi": "宜昌市", "xian": "秭归县", "xiang": "归州镇", "cun": "贾家店村村民委员会"}}, {"type": "Feature", "geometry": {"type": "Point", "coordinates": [110.961869, 30.831575]}, "properties": {"fullname": "湖北省宜昌市秭归县屈原镇新滩社区居民委员会", "cuncode": "420527000000", "sheng": "湖北省", "shi": "宜昌市", "xian": "秭归县", "xiang": "屈原镇", "cun": "新滩社区居民委员会"}}, {"type": "Feature", "geometry": {"type": "Point", "coordinates": [110.823944, 30.932998]}, "properties": {"fullname": "湖北省宜昌市秭归县屈原镇龙马溪村村民委员会", "cuncode": "420527000000", "sheng": "湖北省", "shi": "宜昌市", "xian": "秭归县", "xiang": "屈原镇", "cun": "龙马溪村村民委员会"}}, {"type": "Feature", "geometry": {"type": "Point", "coordinates": [110.789477, 30.939239]}, "properties": {"fullname": "湖北省宜昌市秭归县屈原镇西陵峡村村民委员会", "cuncode": "420527000000", "sheng": "湖北省", "shi": "宜昌市", "xian": "秭归县", "xiang": "屈原镇", "cun": "西陵峡村村民委员会"}}, {"type": "Feature", "geometry": {"type": "Point", "coordinates": [110.78102, 30.939801]}, "properties": {"fullname": "湖北省宜昌市秭归县屈原镇链子岩村村民委员会", "cuncode": "420527000000", "sheng": "湖北省", "shi": "宜昌市", "xian": "秭归县", "xiang": "屈原镇", "cun": "链子岩村村民委员会"}}, {"type": "Feature", "geometry": {"type": "Point", "coordinates": [110.816133, 30.943886]}, "properties": {"fullname": "湖北省宜昌市秭归县屈原镇长江村村民委员会", "cuncode": "420527000000", "sheng": "湖北省", "shi": "宜昌市", "xian": "秭归县", "xiang": "屈原镇", "cun": "长江村村民委员会"}}, {"type": "Feature", "geometry": {"type": "Point", "coordinates": [110.832125, 30.952626]}, "properties": {"fullname": "湖北省宜昌市秭归县屈原镇天龙村村民委员会", "cuncode": "420527000000", "sheng": "湖北省", "shi": "宜昌市", "xian": "秭归县", "xiang": "屈原镇", "cun": "天龙村村民委员会"}}, {"type": "Feature", "geometry": {"type": "Point", "coordinates": [110.821565, 30.974269]}, "properties": {"fullname": "湖北省宜昌市秭归县屈原镇铺坪村村民委员会", "cuncode": "420527000000", "sheng": "湖北省", "shi": "宜昌市", "xian": "秭归县", "xiang": "屈原镇", "cun": "铺坪村村民委员会"}}, {"type": "Feature", "geometry": {"type": "Point", "coordinates": [110.885821, 30.834434]}, "properties": {"fullname": "湖北省宜昌市秭归县屈原镇漆树坪村村民委员会", "cuncode": "420527000000", "sheng": "湖北省", "shi": "宜昌市", "xian": "秭归县", "xiang": "屈原镇", "cun": "漆树坪村村民委员会"}}, {"type": "Feature", "geometry": {"type": "Point", "coordinates": [110.815017, 31.081299]}, "properties": {"fullname": "湖北省宜昌市秭归县屈原镇屈原村村民委员会", "cuncode": "420527000000", "sheng": "湖北省", "shi": "宜昌市", "xian": "秭归县", "xiang": "屈原镇", "cun": "屈原村村民委员会"}}, {"type": "Feature", "geometry": {"type": "Point", "coordinates": [110.822014, 31.0458]}, "properties": {"fullname": "湖北省宜昌市秭归县屈原镇仙女坪村村民委员会", "cuncode": "420527000000", "sheng": "湖北省", "shi": "宜昌市", "xian": "秭归县", "xiang": "屈原镇", "cun": "仙女坪村村民委员会"}}, {"type": "Feature", "geometry": {"type": "Point", "coordinates": [110.837178, 31.070297]}, "properties": {"fullname": "湖北省宜昌市秭归县屈原镇凤凰溪村村民委员会", "cuncode": "420527000000", "sheng": "湖北省", "shi": "宜昌市", "xian": "秭归县", "xiang": "屈原镇", "cun": "凤凰溪村村民委员会"}}, {"type": "Feature", "geometry": {"type": "Point", "coordinates": [110.840897, 31.098727]}, "properties": {"fullname": "湖北省宜昌市秭归县屈原镇北峰村村民委员会", "cuncode": "420527000000", "sheng": "湖北省", "shi": "宜昌市", "xian": "秭归县", "xiang": "屈原镇", "cun": "北峰村村民委员会"}}, {"type": "Feature", "geometry": {"type": "Point", "coordinates": [110.799686, 31.027349]}, "properties": {"fullname": "湖北省宜昌市秭归县屈原镇九岭头村村民委员会", "cuncode": "420527000000", "sheng": "湖北省", "shi": "宜昌市", "xian": "秭归县", "xiang": "屈原镇", "cun": "九岭头村村民委员会"}}, {"type": "Feature", "geometry": {"type": "Point", "coordinates": [110.580526, 30.898985]}, "properties": {"fullname": "湖北省宜昌市秭归县沙镇溪镇沙镇溪社区居民委员会", "cuncode": "420527000000", "sheng": "湖北省", "shi": "宜昌市", "xian": "秭归县", "xiang": "沙镇溪镇", "cun": "沙镇溪社区居民委员会"}}, {"type": "Feature", "geometry": {"type": "Point", "coordinates": [110.457972, 30.991164]}, "properties": {"fullname": "湖北省宜昌市秭归县沙镇溪镇双院村村民委员会", "cuncode": "420527000000", "sheng": "湖北省", "shi": "宜昌市", "xian": "秭归县", "xiang": "沙镇溪镇", "cun": "双院村村民委员会"}}, {"type": "Feature", "geometry": {"type": "Point", "coordinates": [110.478361, 30.98926]}, "properties": {"fullname": "湖北省宜昌市秭归县沙镇溪镇高潮村村民委员会", "cuncode": "420527000000", "sheng": "湖北省", "shi": "宜昌市", "xian": "秭归县", "xiang": "沙镇溪镇", "cun": "高潮村村民委员会"}}, {"type": "Feature", "geometry": {"type": "Point", "coordinates": [110.846886, 30.894718]}, "properties": {"fullname": "湖北省宜昌市秭归县沙镇溪镇马家山村村民委员会", "cuncode": "420527000000", "sheng": "湖北省", "shi": "宜昌市", "xian": "秭归县", "xiang": "沙镇溪镇", "cun": "马家山村村民委员会"}}, {"type": "Feature", "geometry": {"type": "Point", "coordinates": [110.495464, 31.034537]}, "properties": {"fullname": "湖北省宜昌市秭归县沙镇溪镇范家坪村村民委员会", "cuncode": "420527000000", "sheng": "湖北省", "shi": "宜昌市", "xian": "秭归县", "xiang": "沙镇溪镇", "cun": "范家坪村村民委员会"}}, {"type": "Feature", "geometry": {"type": "Point", "coordinates": [110.610386, 30.964977]}, "properties": {"fullname": "湖北省宜昌市秭归县沙镇溪镇乐丰村村民委员会", "cuncode": "420527000000", "sheng": "湖北省", "shi": "宜昌市", "xian": "秭归县", "xiang": "沙镇溪镇", "cun": "乐丰村村民委员会"}}, {"type": "Feature", "geometry": {"type": "Point", "coordinates": [110.610386, 30.964977]}, "properties": {"fullname": "湖北省宜昌市秭归县沙镇溪镇大浴池村村民委员会", "cuncode": "420527000000", "sheng": "湖北省", "shi": "宜昌市", "xian": "秭归县", "xiang": "沙镇溪镇", "cun": "大浴池村村民委员会"}}, {"type": "Feature", "geometry": {"type": "Point", "coordinates": [110.544175, 31.01386]}, "properties": {"fullname": "湖北省宜昌市秭归县沙镇溪镇台子湾村村民委员会", "cuncode": "420527000000", "sheng": "湖北省", "shi": "宜昌市", "xian": "秭归县", "xiang": "沙镇溪镇", "cun": "台子湾村村民委员会"}}, {"type": "Feature", "geometry": {"type": "Point", "coordinates": [110.614426, 30.99242]}, "properties": {"fullname": "湖北省宜昌市秭归县沙镇溪镇树坪村村民委员会", "cuncode": "420527000000", "sheng": "湖北省", "shi": "宜昌市", "xian": "秭归县", "xiang": "沙镇溪镇", "cun": "树坪村村民委员会"}}, {"type": "Feature", "geometry": {"type": "Point", "coordinates": [110.593016, 30.97704]}, "properties": {"fullname": "湖北省宜昌市秭归县沙镇溪镇千将坪村村民委员会", "cuncode": "420527000000", "sheng": "湖北省", "shi": "宜昌市", "xian": "秭归县", "xiang": "沙镇溪镇", "cun": "千将坪村村民委员会"}}, {"type": "Feature", "geometry": {"type": "Point", "coordinates": [110.587443, 30.966648]}, "properties": {"fullname": "湖北省宜昌市秭归县沙镇溪镇梅坪村村民委员会", "cuncode": "420527000000", "sheng": "湖北省", "shi": "宜昌市", "xian": "秭归县", "xiang": "沙镇溪镇", "cun": "梅坪村村民委员会"}}, {"type": "Feature", "geometry": {"type": "Point", "coordinates": [110.610904, 30.963899]}, "properties": {"fullname": "湖北省宜昌市秭归县沙镇溪镇三星店村村民委员会", "cuncode": "420527000000", "sheng": "湖北省", "shi": "宜昌市", "xian": "秭归县", "xiang": "沙镇溪镇", "cun": "三星店村村民委员会"}}, {"type": "Feature", "geometry": {"type": "Point", "coordinates": [110.54572, 30.942187]}, "properties": {"fullname": "湖北省宜昌市秭归县沙镇溪镇长春村村民委员会", "cuncode": "420527000000", "sheng": "湖北省", "shi": "宜昌市", "xian": "秭归县", "xiang": "沙镇溪镇", "cun": "长春村村民委员会"}}, {"type": "Feature", "geometry": {"type": "Point", "coordinates": [110.569651, 30.954589]}, "properties": {"fullname": "湖北省宜昌市秭归县沙镇溪镇倒座铺村村民委员会", "cuncode": "420527000000", "sheng": "湖北省", "shi": "宜昌市", "xian": "秭归县", "xiang": "沙镇溪镇", "cun": "倒座铺村村民委员会"}}, {"type": "Feature", "geometry": {"type": "Point", "coordinates": [110.592408, 30.945248]}, "properties": {"fullname": "湖北省宜昌市秭归县沙镇溪镇马家坝村村民委员会", "cuncode": "420527000000", "sheng": "湖北省", "shi": "宜昌市", "xian": "秭归县", "xiang": "沙镇溪镇", "cun": "马家坝村村民委员会"}}, {"type": "Feature", "geometry": {"type": "Point", "coordinates": [110.619621, 30.92744]}, "properties": {"fullname": "湖北省宜昌市秭归县沙镇溪镇屯里荒村村民委员会", "cuncode": "420527000000", "sheng": "湖北省", "shi": "宜昌市", "xian": "秭归县", "xiang": "沙镇溪镇", "cun": "屯里荒村村民委员会"}}, {"type": "Feature", "geometry": {"type": "Point", "coordinates": [110.579256, 30.894525]}, "properties": {"fullname": "湖北省宜昌市秭归县两河口镇两河村村民委员会", "cuncode": "420527000000", "sheng": "湖北省", "shi": "宜昌市", "xian": "秭归县", "xiang": "两河口镇", "cun": "两河村村民委员会"}}, {"type": "Feature", "geometry": {"type": "Point", "coordinates": [110.573907, 30.874458]}, "properties": {"fullname": "湖北省宜昌市秭归县两河口镇太坪村村民委员会", "cuncode": "420527000000", "sheng": "湖北省", "shi": "宜昌市", "xian": "秭归县", "xiang": "两河口镇", "cun": "太坪村村民委员会"}}, {"type": "Feature", "geometry": {"type": "Point", "coordinates": [110.603931, 30.86607]}, "properties": {"fullname": "湖北省宜昌市秭归县两河口镇土珠庙村村民委员会", "cuncode": "420527000000", "sheng": "湖北省", "shi": "宜昌市", "xian": "秭归县", "xiang": "两河口镇", "cun": "土珠庙村村民委员会"}}, {"type": "Feature", "geometry": {"type": "Point", "coordinates": [110.602928, 30.845555]}, "properties": {"fullname": "湖北省宜昌市秭归县两河口镇月明山村村民委员会", "cuncode": "420527000000", "sheng": "湖北省", "shi": "宜昌市", "xian": "秭归县", "xiang": "两河口镇", "cun": "月明山村村民委员会"}}, {"type": "Feature", "geometry": {"type": "Point", "coordinates": [110.573907, 30.874458]}, "properties": {"fullname": "湖北省宜昌市秭归县两河口镇云台荒村村民委员会", "cuncode": "420527000000", "sheng": "湖北省", "shi": "宜昌市", "xian": "秭归县", "xiang": "两河口镇", "cun": "云台荒村村民委员会"}}, {"type": "Feature", "geometry": {"type": "Point", "coordinates": [110.557809, 30.826005]}, "properties": {"fullname": "湖北省宜昌市秭归县两河口镇中心观村村民委员会", "cuncode": "420527000000", "sheng": "湖北省", "shi": "宜昌市", "xian": "秭归县", "xiang": "两河口镇", "cun": "中心观村村民委员会"}}, {"type": "Feature", "geometry": {"type": "Point", "coordinates": [110.507922, 30.782876]}, "properties": {"fullname": "湖北省宜昌市秭归县两河口镇二甲村村民委员会", "cuncode": "420527000000", "sheng": "湖北省", "shi": "宜昌市", "xian": "秭归县", "xiang": "两河口镇", "cun": "二甲村村民委员会"}}, {"type": "Feature", "geometry": {"type": "Point", "coordinates": [110.53271, 30.782729]}, "properties": {"fullname": "湖北省宜昌市秭归县两河口镇铺庄村村民委员会", "cuncode": "420527000000", "sheng": "湖北省", "shi": "宜昌市", "xian": "秭归县", "xiang": "两河口镇", "cun": "铺庄村村民委员会"}}, {"type": "Feature", "geometry": {"type": "Point", "coordinates": [110.784504, 30.767983]}, "properties": {"fullname": "湖北省宜昌市秭归县两河口镇高桥河村村民委员会", "cuncode": "420527000000", "sheng": "湖北省", "shi": "宜昌市", "xian": "秭归县", "xiang": "两河口镇", "cun": "高桥河村村民委员会"}}, {"type": "Feature", "geometry": {"type": "Point", "coordinates": [110.458654, 30.767924]}, "properties": {"fullname": "湖北省宜昌市秭归县两河口镇香龙村村民委员会", "cuncode": "420527000000", "sheng": "湖北省", "shi": "宜昌市", "xian": "秭归县", "xiang": "两河口镇", "cun": "香龙村村民委员会"}}, {"type": "Feature", "geometry": {"type": "Point", "coordinates": [110.51308, 30.82122]}, "properties": {"fullname": "湖北省宜昌市秭归县两河口镇白庙岭村村民委员会", "cuncode": "420527000000", "sheng": "湖北省", "shi": "宜昌市", "xian": "秭归县", "xiang": "两河口镇", "cun": "白庙岭村村民委员会"}}, {"type": "Feature", "geometry": {"type": "Point", "coordinates": [110.526214, 30.884482]}, "properties": {"fullname": "湖北省宜昌市秭归县两河口镇云盘村村民委员会", "cuncode": "420527000000", "sheng": "湖北省", "shi": "宜昌市", "xian": "秭归县", "xiang": "两河口镇", "cun": "云盘村村民委员会"}}, {"type": "Feature", "geometry": {"type": "Point", "coordinates": [110.741583, 30.957197]}, "properties": {"fullname": "湖北省宜昌市秭归县郭家坝镇卜庄河社区居民委员会", "cuncode": "420527000000", "sheng": "湖北省", "shi": "宜昌市", "xian": "秭归县", "xiang": "郭家坝镇", "cun": "卜庄河社区居民委员会"}}, {"type": "Feature", "geometry": {"type": "Point", "coordinates": [110.725288, 30.919679]}, "properties": {"fullname": "湖北省宜昌市秭归县郭家坝镇郭家坝村村民委员会", "cuncode": "420527000000", "sheng": "湖北省", "shi": "宜昌市", "xian": "秭归县", "xiang": "郭家坝镇", "cun": "郭家坝村村民委员会"}}, {"type": "Feature", "geometry": {"type": "Point", "coordinates": [110.697925, 30.918437]}, "properties": {"fullname": "湖北省宜昌市秭归县郭家坝镇牛岭村村民委员会", "cuncode": "420527000000", "sheng": "湖北省", "shi": "宜昌市", "xian": "秭归县", "xiang": "郭家坝镇", "cun": "牛岭村村民委员会"}}, {"type": "Feature", "geometry": {"type": "Point", "coordinates": [110.680683, 30.915066]}, "properties": {"fullname": "湖北省宜昌市秭归县郭家坝镇王家岭村村民委员会", "cuncode": "420527000000", "sheng": "湖北省", "shi": "宜昌市", "xian": "秭归县", "xiang": "郭家坝镇", "cun": "王家岭村村民委员会"}}, {"type": "Feature", "geometry": {"type": "Point", "coordinates": [110.630129, 31.113576]}, "properties": {"fullname": "湖北省宜昌市秭归县郭家坝镇柏杨坪村村民委员会", "cuncode": "420527000000", "sheng": "湖北省", "shi": "宜昌市", "xian": "秭归县", "xiang": "郭家坝镇", "cun": "柏杨坪村村民委员会"}}, {"type": "Feature", "geometry": {"type": "Point", "coordinates": [110.680571, 30.918534]}, "properties": {"fullname": "湖北省宜昌市秭归县郭家坝镇桐树湾村村民委员会", "cuncode": "420527000000", "sheng": "湖北省", "shi": "宜昌市", "xian": "秭归县", "xiang": "郭家坝镇", "cun": "桐树湾村村民委员会"}}, {"type": "Feature", "geometry": {"type": "Point", "coordinates": [110.742751, 30.91887]}, "properties": {"fullname": "湖北省宜昌市秭归县郭家坝镇烟灯堡村村民委员会", "cuncode": "420527000000", "sheng": "湖北省", "shi": "宜昌市", "xian": "秭归县", "xiang": "郭家坝镇", "cun": "烟灯堡村村民委员会"}}, {"type": "Feature", "geometry": {"type": "Point", "coordinates": [110.715814, 31.156937]}, "properties": {"fullname": "湖北省宜昌市秭归县郭家坝镇邓家坡村村民委员会", "cuncode": "420527000000", "sheng": "湖北省", "shi": "宜昌市", "xian": "秭归县", "xiang": "郭家坝镇", "cun": "邓家坡村村民委员会"}}, {"type": "Feature", "geometry": {"type": "Point", "coordinates": [110.741818, 30.95096]}, "properties": {"fullname": "湖北省宜昌市秭归县郭家坝镇头道河村村民委员会", "cuncode": "420527000000", "sheng": "湖北省", "shi": "宜昌市", "xian": "秭归县", "xiang": "郭家坝镇", "cun": "头道河村村民委员会"}}, {"type": "Feature", "geometry": {"type": "Point", "coordinates": [110.660665, 30.948652]}, "properties": {"fullname": "湖北省宜昌市秭归县郭家坝镇熊家岭村村民委员会", "cuncode": "420527000000", "sheng": "湖北省", "shi": "宜昌市", "xian": "秭归县", "xiang": "郭家坝镇", "cun": "熊家岭村村民委员会"}}, {"type": "Feature", "geometry": {"type": "Point", "coordinates": [110.689294, 30.961674]}, "properties": {"fullname": "湖北省宜昌市秭归县郭家坝镇楚王井村村民委员会", "cuncode": "420527000000", "sheng": "湖北省", "shi": "宜昌市", "xian": "秭归县", "xiang": "郭家坝镇", "cun": "楚王井村村民委员会"}}, {"type": "Feature", "geometry": {"type": "Point", "coordinates": [110.825362, 30.824075]}, "properties": {"fullname": "湖北省宜昌市秭归县郭家坝镇擂鼓台村村民委员会", "cuncode": "420527000000", "sheng": "湖北省", "shi": "宜昌市", "xian": "秭归县", "xiang": "郭家坝镇", "cun": "擂鼓台村村民委员会"}}, {"type": "Feature", "geometry": {"type": "Point", "coordinates": [110.781075, 30.879583]}, "properties": {"fullname": "湖北省宜昌市秭归县郭家坝镇荒口坪村村民委员会", "cuncode": "420527000000", "sheng": "湖北省", "shi": "宜昌市", "xian": "秭归县", "xiang": "郭家坝镇", "cun": "荒口坪村村民委员会"}}, {"type": "Feature", "geometry": {"type": "Point", "coordinates": [110.755047, 30.864026]}, "properties": {"fullname": "湖北省宜昌市秭归县郭家坝镇白云山村村民委员会", "cuncode": "420527000000", "sheng": "湖北省", "shi": "宜昌市", "xian": "秭归县", "xiang": "郭家坝镇", "cun": "白云山村村民委员会"}}, {"type": "Feature", "geometry": {"type": "Point", "coordinates": [110.653913, 30.880242]}, "properties": {"fullname": "湖北省宜昌市秭归县郭家坝镇文化村村民委员会", "cuncode": "420527000000", "sheng": "湖北省", "shi": "宜昌市", "xian": "秭归县", "xiang": "郭家坝镇", "cun": "文化村村民委员会"}}, {"type": "Feature", "geometry": {"type": "Point", "coordinates": [110.653706, 30.89771]}, "properties": {"fullname": "湖北省宜昌市秭归县郭家坝镇百日场村村民委员会", "cuncode": "420527000000", "sheng": "湖北省", "shi": "宜昌市", "xian": "秭归县", "xiang": "郭家坝镇", "cun": "百日场村村民委员会"}}, {"type": "Feature", "geometry": {"type": "Point", "coordinates": [110.614023, 30.894482]}, "properties": {"fullname": "湖北省宜昌市秭归县郭家坝镇夫子头村村民委员会", "cuncode": "420527000000", "sheng": "湖北省", "shi": "宜昌市", "xian": "秭归县", "xiang": "郭家坝镇", "cun": "夫子头村村民委员会"}}, {"type": "Feature", "geometry": {"type": "Point", "coordinates": [110.612509, 30.877888]}, "properties": {"fullname": "湖北省宜昌市秭归县郭家坝镇西坡村村民委员会", "cuncode": "420527000000", "sheng": "湖北省", "shi": "宜昌市", "xian": "秭归县", "xiang": "郭家坝镇", "cun": "西坡村村民委员会"}}, {"type": "Feature", "geometry": {"type": "Point", "coordinates": [110.733047, 30.846575]}, "properties": {"fullname": "湖北省宜昌市秭归县郭家坝镇文家岩村村民委员会", "cuncode": "420527000000", "sheng": "湖北省", "shi": "宜昌市", "xian": "秭归县", "xiang": "郭家坝镇", "cun": "文家岩村村民委员会"}}, {"type": "Feature", "geometry": {"type": "Point", "coordinates": [110.648291, 30.808402]}, "properties": {"fullname": "湖北省宜昌市秭归县郭家坝镇庙垭村村民委员会", "cuncode": "420527000000", "sheng": "湖北省", "shi": "宜昌市", "xian": "秭归县", "xiang": "郭家坝镇", "cun": "庙垭村村民委员会"}}, {"type": "Feature", "geometry": {"type": "Point", "coordinates": [110.897672, 30.807815]}, "properties": {"fullname": "湖北省宜昌市秭归县郭家坝镇罗家坪村村民委员会", "cuncode": "420527000000", "sheng": "湖北省", "shi": "宜昌市", "xian": "秭归县", "xiang": "郭家坝镇", "cun": "罗家坪村村民委员会"}}, {"type": "Feature", "geometry": {"type": "Point", "coordinates": [110.756959, 30.74517]}, "properties": {"fullname": "湖北省宜昌市秭归县杨林桥镇杨林桥村村民委员会", "cuncode": "420527000000", "sheng": "湖北省", "shi": "宜昌市", "xian": "秭归县", "xiang": "杨林桥镇", "cun": "杨林桥村村民委员会"}}, {"type": "Feature", "geometry": {"type": "Point", "coordinates": [110.739495, 30.771603]}, "properties": {"fullname": "湖北省宜昌市秭归县杨林桥镇马回营村村民委员会", "cuncode": "420527000000", "sheng": "湖北省", "shi": "宜昌市", "xian": "秭归县", "xiang": "杨林桥镇", "cun": "马回营村村民委员会"}}, {"type": "Feature", "geometry": {"type": "Point", "coordinates": [110.780253, 30.712616]}, "properties": {"fullname": "湖北省宜昌市秭归县杨林桥镇天鹅村村民委员会", "cuncode": "420527000000", "sheng": "湖北省", "shi": "宜昌市", "xian": "秭归县", "xiang": "杨林桥镇", "cun": "天鹅村村民委员会"}}, {"type": "Feature", "geometry": {"type": "Point", "coordinates": [110.763138, 30.710205]}, "properties": {"fullname": "湖北省宜昌市秭归县杨林桥镇响水洞村村民委员会", "cuncode": "420527000000", "sheng": "湖北省", "shi": "宜昌市", "xian": "秭归县", "xiang": "杨林桥镇", "cun": "响水洞村村民委员会"}}, {"type": "Feature", "geometry": {"type": "Point", "coordinates": [110.700835, 30.735482]}, "properties": {"fullname": "湖北省宜昌市秭归县杨林桥镇三渡河村村民委员会", "cuncode": "420527000000", "sheng": "湖北省", "shi": "宜昌市", "xian": "秭归县", "xiang": "杨林桥镇", "cun": "三渡河村村民委员会"}}, {"type": "Feature", "geometry": {"type": "Point", "coordinates": [110.696299, 30.737974]}, "properties": {"fullname": "湖北省宜昌市秭归县杨林桥镇凤凰岭村村民委员会", "cuncode": "420527000000", "sheng": "湖北省", "shi": "宜昌市", "xian": "秭归县", "xiang": "杨林桥镇", "cun": "凤凰岭村村民委员会"}}, {"type": "Feature", "geometry": {"type": "Point", "coordinates": [110.690821, 30.755481]}, "properties": {"fullname": "湖北省宜昌市秭归县杨林桥镇西阳坪村村民委员会", "cuncode": "420527000000", "sheng": "湖北省", "shi": "宜昌市", "xian": "秭归县", "xiang": "杨林桥镇", "cun": "西阳坪村村民委员会"}}, {"type": "Feature", "geometry": {"type": "Point", "coordinates": [110.647967, 30.699391]}, "properties": {"fullname": "湖北省宜昌市秭归县杨林桥镇鼓锣坪村村民委员会", "cuncode": "420527000000", "sheng": "湖北省", "shi": "宜昌市", "xian": "秭归县", "xiang": "杨林桥镇", "cun": "鼓锣坪村村民委员会"}}, {"type": "Feature", "geometry": {"type": "Point", "coordinates": [110.599642, 30.702014]}, "properties": {"fullname": "湖北省宜昌市秭归县杨林桥镇云峰村村民委员会", "cuncode": "420527000000", "sheng": "湖北省", "shi": "宜昌市", "xian": "秭归县", "xiang": "杨林桥镇", "cun": "云峰村村民委员会"}}, {"type": "Feature", "geometry": {"type": "Point", "coordinates": [110.639856, 30.721328]}, "properties": {"fullname": "湖北省宜昌市秭归县杨林桥镇眉毛山村村民委员会", "cuncode": "420527000000", "sheng": "湖北省", "shi": "宜昌市", "xian": "秭归县", "xiang": "杨林桥镇", "cun": "眉毛山村村民委员会"}}, {"type": "Feature", "geometry": {"type": "Point", "coordinates": [110.683129, 30.7008]}, "properties": {"fullname": "湖北省宜昌市秭归县杨林桥镇白鹤洞村村民委员会", "cuncode": "420527000000", "sheng": "湖北省", "shi": "宜昌市", "xian": "秭归县", "xiang": "杨林桥镇", "cun": "白鹤洞村村民委员会"}}, {"type": "Feature", "geometry": {"type": "Point", "coordinates": [110.735044, 30.973969]}, "properties": {"fullname": "湖北省宜昌市秭归县杨林桥镇赵家山村村民委员会", "cuncode": "420527000000", "sheng": "湖北省", "shi": "宜昌市", "xian": "秭归县", "xiang": "杨林桥镇", "cun": "赵家山村村民委员会"}}, {"type": "Feature", "geometry": {"type": "Point", "coordinates": [110.722519, 30.684387]}, "properties": {"fullname": "湖北省宜昌市秭归县杨林桥镇三台寺村村民委员会", "cuncode": "420527000000", "sheng": "湖北省", "shi": "宜昌市", "xian": "秭归县", "xiang": "杨林桥镇", "cun": "三台寺村村民委员会"}}, {"type": "Feature", "geometry": {"type": "Point", "coordinates": [110.739619, 30.659788]}, "properties": {"fullname": "湖北省宜昌市秭归县杨林桥镇白岩村村民委员会", "cuncode": "420527000000", "sheng": "湖北省", "shi": "宜昌市", "xian": "秭归县", "xiang": "杨林桥镇", "cun": "白岩村村民委员会"}}, {"type": "Feature", "geometry": {"type": "Point", "coordinates": [110.785146, 30.845335]}, "properties": {"fullname": "湖北省宜昌市秭归县九畹溪镇周坪村村民委员会", "cuncode": "420527000000", "sheng": "湖北省", "shi": "宜昌市", "xian": "秭归县", "xiang": "九畹溪镇", "cun": "周坪村村民委员会"}}, {"type": "Feature", "geometry": {"type": "Point", "coordinates": [110.78677, 30.84483]}, "properties": {"fullname": "湖北省宜昌市秭归县九畹溪镇九畹溪村村民委员会", "cuncode": "420527000000", "sheng": "湖北省", "shi": "宜昌市", "xian": "秭归县", "xiang": "九畹溪镇", "cun": "九畹溪村村民委员会"}}, {"type": "Feature", "geometry": {"type": "Point", "coordinates": [110.827816, 30.881188]}, "properties": {"fullname": "湖北省宜昌市秭归县九畹溪镇桂垭村村民委员会", "cuncode": "420527000000", "sheng": "湖北省", "shi": "宜昌市", "xian": "秭归县", "xiang": "九畹溪镇", "cun": "桂垭村村民委员会"}}, {"type": "Feature", "geometry": {"type": "Point", "coordinates": [110.830603, 30.849174]}, "properties": {"fullname": "湖北省宜昌市秭归县九畹溪镇界垭村村民委员会", "cuncode": "420527000000", "sheng": "湖北省", "shi": "宜昌市", "xian": "秭归县", "xiang": "九畹溪镇", "cun": "界垭村村民委员会"}}, {"type": "Feature", "geometry": {"type": "Point", "coordinates": [110.768978, 30.854506]}, "properties": {"fullname": "湖北省宜昌市秭归县九畹溪镇仙女村村民委员会", "cuncode": "420527000000", "sheng": "湖北省", "shi": "宜昌市", "xian": "秭归县", "xiang": "九畹溪镇", "cun": "仙女村村民委员会"}}, {"type": "Feature", "geometry": {"type": "Point", "coordinates": [110.754809, 30.8146]}, "properties": {"fullname": "湖北省宜昌市秭归县九畹溪镇峡口村村民委员会", "cuncode": "420527000000", "sheng": "湖北省", "shi": "宜昌市", "xian": "秭归县", "xiang": "九畹溪镇", "cun": "峡口村村民委员会"}}, {"type": "Feature", "geometry": {"type": "Point", "coordinates": [110.711785, 30.824293]}, "properties": {"fullname": "湖北省宜昌市秭归县九畹溪镇金凤村村民委员会", "cuncode": "420527000000", "sheng": "湖北省", "shi": "宜昌市", "xian": "秭归县", "xiang": "九畹溪镇", "cun": "金凤村村民委员会"}}, {"type": "Feature", "geometry": {"type": "Point", "coordinates": [110.709263, 30.796589]}, "properties": {"fullname": "湖北省宜昌市秭归县九畹溪镇罗圈荒村村民委员会", "cuncode": "420527000000", "sheng": "湖北省", "shi": "宜昌市", "xian": "秭归县", "xiang": "九畹溪镇", "cun": "罗圈荒村村民委员会"}}, {"type": "Feature", "geometry": {"type": "Point", "coordinates": [110.791356, 30.789581]}, "properties": {"fullname": "湖北省宜昌市秭归县九畹溪镇九畹堂村村民委员会", "cuncode": "420527000000", "sheng": "湖北省", "shi": "宜昌市", "xian": "秭归县", "xiang": "九畹溪镇", "cun": "九畹堂村村民委员会"}}, {"type": "Feature", "geometry": {"type": "Point", "coordinates": [110.797292, 30.783127]}, "properties": {"fullname": "湖北省宜昌市秭归县九畹溪镇砚窝台村村民委员会", "cuncode": "420527000000", "sheng": "湖北省", "shi": "宜昌市", "xian": "秭归县", "xiang": "九畹溪镇", "cun": "砚窝台村村民委员会"}}, {"type": "Feature", "geometry": {"type": "Point", "coordinates": [110.854997, 30.884945]}, "properties": {"fullname": "湖北省宜昌市秭归县九畹溪镇中阳坪村村民委员会", "cuncode": "420527000000", "sheng": "湖北省", "shi": "宜昌市", "xian": "秭归县", "xiang": "九畹溪镇", "cun": "中阳坪村村民委员会"}}, {"type": "Feature", "geometry": {"type": "Point", "coordinates": [110.819846, 30.779825]}, "properties": {"fullname": "湖北省宜昌市秭归县九畹溪镇槐树坪村村民委员会", "cuncode": "420527000000", "sheng": "湖北省", "shi": "宜昌市", "xian": "秭归县", "xiang": "九畹溪镇", "cun": "槐树坪村村民委员会"}}, {"type": "Feature", "geometry": {"type": "Point", "coordinates": [110.838306, 30.701702]}, "properties": {"fullname": "湖北省宜昌市秭归县九畹溪镇石柱土家族村村民委员会", "cuncode": "420527000000", "sheng": "湖北省", "shi": "宜昌市", "xian": "秭归县", "xiang": "九畹溪镇", "cun": "石柱土家族村村民委员会"}}, {"type": "Feature", "geometry": {"type": "Point", "coordinates": [110.836654, 30.748468]}, "properties": {"fullname": "湖北省宜昌市秭归县九畹溪镇穿心店村村民委员会", "cuncode": "420527000000", "sheng": "湖北省", "shi": "宜昌市", "xian": "秭归县", "xiang": "九畹溪镇", "cun": "穿心店村村民委员会"}}, {"type": "Feature", "geometry": {"type": "Point", "coordinates": [110.672982, 31.06609]}, "properties": {"fullname": "湖北省宜昌市秭归县水田坝乡上坝村村民委员会", "cuncode": "420527000000", "sheng": "湖北省", "shi": "宜昌市", "xian": "秭归县", "xiang": "水田坝乡", "cun": "上坝村村民委员会"}}, {"type": "Feature", "geometry": {"type": "Point", "coordinates": [110.695539, 31.093707]}, "properties": {"fullname": "湖北省宜昌市秭归县水田坝乡王家桥村村民委员会", "cuncode": "420527000000", "sheng": "湖北省", "shi": "宜昌市", "xian": "秭归县", "xiang": "水田坝乡", "cun": "王家桥村村民委员会"}}, {"type": "Feature", "geometry": {"type": "Point", "coordinates": [110.822717, 30.876479]}, "properties": {"fullname": "湖北省宜昌市秭归县水田坝乡下坝村村民委员会", "cuncode": "420527000000", "sheng": "湖北省", "shi": "宜昌市", "xian": "秭归县", "xiang": "水田坝乡", "cun": "下坝村村民委员会"}}, {"type": "Feature", "geometry": {"type": "Point", "coordinates": [110.705618, 31.037071]}, "properties": {"fullname": "湖北省宜昌市秭归县水田坝乡兴合村村民委员会", "cuncode": "420527000000", "sheng": "湖北省", "shi": "宜昌市", "xian": "秭归县", "xiang": "水田坝乡", "cun": "兴合村村民委员会"}}, {"type": "Feature", "geometry": {"type": "Point", "coordinates": [110.687613, 31.06097]}, "properties": {"fullname": "湖北省宜昌市秭归县水田坝乡龙口村村民委员会", "cuncode": "420527000000", "sheng": "湖北省", "shi": "宜昌市", "xian": "秭归县", "xiang": "水田坝乡", "cun": "龙口村村民委员会"}}, {"type": "Feature", "geometry": {"type": "Point", "coordinates": [110.676547, 31.06703]}, "properties": {"fullname": "湖北省宜昌市秭归县水田坝乡永吉村村民委员会", "cuncode": "420527000000", "sheng": "湖北省", "shi": "宜昌市", "xian": "秭归县", "xiang": "水田坝乡", "cun": "永吉村村民委员会"}}, {"type": "Feature", "geometry": {"type": "Point", "coordinates": [110.646621, 31.095848]}, "properties": {"fullname": "湖北省宜昌市秭归县水田坝乡三溪河村村民委员会", "cuncode": "420527000000", "sheng": "湖北省", "shi": "宜昌市", "xian": "秭归县", "xiang": "水田坝乡", "cun": "三溪河村村民委员会"}}, {"type": "Feature", "geometry": {"type": "Point", "coordinates": [110.713499, 31.075954]}, "properties": {"fullname": "湖北省宜昌市秭归县水田坝乡青蒿峪村村民委员会", "cuncode": "420527000000", "sheng": "湖北省", "shi": "宜昌市", "xian": "秭归县", "xiang": "水田坝乡", "cun": "青蒿峪村村民委员会"}}, {"type": "Feature", "geometry": {"type": "Point", "coordinates": [110.822717, 30.876479]}, "properties": {"fullname": "湖北省宜昌市秭归县水田坝乡正存村村民委员会", "cuncode": "420527000000", "sheng": "湖北省", "shi": "宜昌市", "xian": "秭归县", "xiang": "水田坝乡", "cun": "正存村村民委员会"}}, {"type": "Feature", "geometry": {"type": "Point", "coordinates": [110.639425, 31.150805]}, "properties": {"fullname": "湖北省宜昌市秭归县水田坝乡马营村村民委员会", "cuncode": "420527000000", "sheng": "湖北省", "shi": "宜昌市", "xian": "秭归县", "xiang": "水田坝乡", "cun": "马营村村民委员会"}}, {"type": "Feature", "geometry": {"type": "Point", "coordinates": [110.822717, 30.876479]}, "properties": {"fullname": "湖北省宜昌市秭归县水田坝乡野桑坪村村民委员会", "cuncode": "420527000000", "sheng": "湖北省", "shi": "宜昌市", "xian": "秭归县", "xiang": "水田坝乡", "cun": "野桑坪村村民委员会"}}, {"type": "Feature", "geometry": {"type": "Point", "coordinates": [110.683172, 31.100475]}, "properties": {"fullname": "湖北省宜昌市秭归县水田坝乡严坪村村民委员会", "cuncode": "420527000000", "sheng": "湖北省", "shi": "宜昌市", "xian": "秭归县", "xiang": "水田坝乡", "cun": "严坪村村民委员会"}}, {"type": "Feature", "geometry": {"type": "Point", "coordinates": [110.607334, 31.091418]}, "properties": {"fullname": "湖北省宜昌市秭归县水田坝乡石垭村村民委员会", "cuncode": "420527000000", "sheng": "湖北省", "shi": "宜昌市", "xian": "秭归县", "xiang": "水田坝乡", "cun": "石垭村村民委员会"}}, {"type": "Feature", "geometry": {"type": "Point", "coordinates": [110.544093, 30.843427]}, "properties": {"fullname": "湖北省宜昌市秭归县泄滩乡陈家湾村村民委员会", "cuncode": "420527000000", "sheng": "湖北省", "shi": "宜昌市", "xian": "秭归县", "xiang": "泄滩乡", "cun": "陈家湾村村民委员会"}}, {"type": "Feature", "geometry": {"type": "Point", "coordinates": [110.611347, 31.040505]}, "properties": {"fullname": "湖北省宜昌市秭归县泄滩乡万家村村民委员会", "cuncode": "420527000000", "sheng": "湖北省", "shi": "宜昌市", "xian": "秭归县", "xiang": "泄滩乡", "cun": "万家村村民委员会"}}, {"type": "Feature", "geometry": {"type": "Point", "coordinates": [110.537504, 31.058551]}, "properties": {"fullname": "湖北省宜昌市秭归县泄滩乡徐家山村村民委员会", "cuncode": "420527000000", "sheng": "湖北省", "shi": "宜昌市", "xian": "秭归县", "xiang": "泄滩乡", "cun": "徐家山村村民委员会"}}, {"type": "Feature", "geometry": {"type": "Point", "coordinates": [110.596726, 31.032839]}, "properties": {"fullname": "湖北省宜昌市秭归县泄滩乡棋盘岭村村民委员会", "cuncode": "420527000000", "sheng": "湖北省", "shi": "宜昌市", "xian": "秭归县", "xiang": "泄滩乡", "cun": "棋盘岭村村民委员会"}}, {"type": "Feature", "geometry": {"type": "Point", "coordinates": [110.582407, 31.014853]}, "properties": {"fullname": "湖北省宜昌市秭归县泄滩乡坊家山村村民委员会", "cuncode": "420527000000", "sheng": "湖北省", "shi": "宜昌市", "xian": "秭归县", "xiang": "泄滩乡", "cun": "坊家山村村民委员会"}}, {"type": "Feature", "geometry": {"type": "Point", "coordinates": [110.551239, 31.082149]}, "properties": {"fullname": "湖北省宜昌市秭归县泄滩乡黄家山村村民委员会", "cuncode": "420527000000", "sheng": "湖北省", "shi": "宜昌市", "xian": "秭归县", "xiang": "泄滩乡", "cun": "黄家山村村民委员会"}}, {"type": "Feature", "geometry": {"type": "Point", "coordinates": [110.542919, 31.087671]}, "properties": {"fullname": "湖北省宜昌市秭归县泄滩乡核桃坪村村民委员会", "cuncode": "420527000000", "sheng": "湖北省", "shi": "宜昌市", "xian": "秭归县", "xiang": "泄滩乡", "cun": "核桃坪村村民委员会"}}, {"type": "Feature", "geometry": {"type": "Point", "coordinates": [110.521084, 31.113952]}, "properties": {"fullname": "湖北省宜昌市秭归县泄滩乡九条岭村村民委员会", "cuncode": "420527000000", "sheng": "湖北省", "shi": "宜昌市", "xian": "秭归县", "xiang": "泄滩乡", "cun": "九条岭村村民委员会"}}, {"type": "Feature", "geometry": {"type": "Point", "coordinates": [110.558029, 31.084591]}, "properties": {"fullname": "湖北省宜昌市秭归县泄滩乡白家河村村民委员会", "cuncode": "420527000000", "sheng": "湖北省", "shi": "宜昌市", "xian": "秭归县", "xiang": "泄滩乡", "cun": "白家河村村民委员会"}}, {"type": "Feature", "geometry": {"type": "Point", "coordinates": [110.581405, 31.090094]}, "properties": {"fullname": "湖北省宜昌市秭归县泄滩乡柴家湾村村民委员会", "cuncode": "420527000000", "sheng": "湖北省", "shi": "宜昌市", "xian": "秭归县", "xiang": "泄滩乡", "cun": "柴家湾村村民委员会"}}, {"type": "Feature", "geometry": {"type": "Point", "coordinates": [110.611152, 31.004812]}, "properties": {"fullname": "湖北省宜昌市秭归县泄滩乡牛口村村民委员会", "cuncode": "420527000000", "sheng": "湖北省", "shi": "宜昌市", "xian": "秭归县", "xiang": "泄滩乡", "cun": "牛口村村民委员会"}}, {"type": "Feature", "geometry": {"type": "Point", "coordinates": [110.623763, 30.786946]}, "properties": {"fullname": "湖北省宜昌市秭归县泄滩乡陈家坡村村民委员会", "cuncode": "420527000000", "sheng": "湖北省", "shi": "宜昌市", "xian": "秭归县", "xiang": "泄滩乡", "cun": "陈家坡村村民委员会"}}, {"type": "Feature", "geometry": {"type": "Point", "coordinates": [110.353616, 30.821597]}, "properties": {"fullname": "湖北省宜昌市秭归县泄滩乡桂花坪村村民委员会", "cuncode": "420527000000", "sheng": "湖北省", "shi": "宜昌市", "xian": "秭归县", "xiang": "泄滩乡", "cun": "桂花坪村村民委员会"}}, {"type": "Feature", "geometry": {"type": "Point", "coordinates": [110.487579, 30.925902]}, "properties": {"fullname": "湖北省宜昌市秭归县梅家河乡鲁家湾村村民委员会", "cuncode": "420527000000", "sheng": "湖北省", "shi": "宜昌市", "xian": "秭归县", "xiang": "梅家河乡", "cun": "鲁家湾村村民委员会"}}, {"type": "Feature", "geometry": {"type": "Point", "coordinates": [110.475255, 30.959351]}, "properties": {"fullname": "湖北省宜昌市秭归县梅家河乡尤家湾村村民委员会", "cuncode": "420527000000", "sheng": "湖北省", "shi": "宜昌市", "xian": "秭归县", "xiang": "梅家河乡", "cun": "尤家湾村村民委员会"}}, {"type": "Feature", "geometry": {"type": "Point", "coordinates": [110.496093, 30.955928]}, "properties": {"fullname": "湖北省宜昌市秭归县梅家河乡王家坡村村民委员会", "cuncode": "420527000000", "sheng": "湖北省", "shi": "宜昌市", "xian": "秭归县", "xiang": "梅家河乡", "cun": "王家坡村村民委员会"}}, {"type": "Feature", "geometry": {"type": "Point", "coordinates": [110.505076, 30.94181]}, "properties": {"fullname": "湖北省宜昌市秭归县梅家河乡京丈坪村村民委员会", "cuncode": "420527000000", "sheng": "湖北省", "shi": "宜昌市", "xian": "秭归县", "xiang": "梅家河乡", "cun": "京丈坪村村民委员会"}}, {"type": "Feature", "geometry": {"type": "Point", "coordinates": [110.522213, 30.952639]}, "properties": {"fullname": "湖北省宜昌市秭归县梅家河乡下里坪村村民委员会", "cuncode": "420527000000", "sheng": "湖北省", "shi": "宜昌市", "xian": "秭归县", "xiang": "梅家河乡", "cun": "下里坪村村民委员会"}}, {"type": "Feature", "geometry": {"type": "Point", "coordinates": [110.503405, 30.918408]}, "properties": {"fullname": "湖北省宜昌市秭归县梅家河乡龙王山村村民委员会", "cuncode": "420527000000", "sheng": "湖北省", "shi": "宜昌市", "xian": "秭归县", "xiang": "梅家河乡", "cun": "龙王山村村民委员会"}}, {"type": "Feature", "geometry": {"type": "Point", "coordinates": [110.491458, 30.921923]}, "properties": {"fullname": "湖北省宜昌市秭归县梅家河乡陈家埫村村民委员会", "cuncode": "420527000000", "sheng": "湖北省", "shi": "宜昌市", "xian": "秭归县", "xiang": "梅家河乡", "cun": "陈家埫村村民委员会"}}, {"type": "Feature", "geometry": {"type": "Point", "coordinates": [110.872442, 30.847413]}, "properties": {"fullname": "湖北省宜昌市秭归县梅家河乡肖家坪村村民委员会", "cuncode": "420527000000", "sheng": "湖北省", "shi": "宜昌市", "xian": "秭归县", "xiang": "梅家河乡", "cun": "肖家坪村村民委员会"}}, {"type": "Feature", "geometry": {"type": "Point", "coordinates": [110.473277, 30.898421]}, "properties": {"fullname": "湖北省宜昌市秭归县梅家河乡水田垭村村民委员会", "cuncode": "420527000000", "sheng": "湖北省", "shi": "宜昌市", "xian": "秭归县", "xiang": "梅家河乡", "cun": "水田垭村村民委员会"}}, {"type": "Feature", "geometry": {"type": "Point", "coordinates": [110.431192, 30.921548]}, "properties": {"fullname": "湖北省宜昌市秭归县梅家河乡龟坪河村村民委员会", "cuncode": "420527000000", "sheng": "湖北省", "shi": "宜昌市", "xian": "秭归县", "xiang": "梅家河乡", "cun": "龟坪河村村民委员会"}}, {"type": "Feature", "geometry": {"type": "Point", "coordinates": [110.455812, 30.950955]}, "properties": {"fullname": "湖北省宜昌市秭归县梅家河乡谭家岭村村民委员会", "cuncode": "420527000000", "sheng": "湖北省", "shi": "宜昌市", "xian": "秭归县", "xiang": "梅家河乡", "cun": "谭家岭村村民委员会"}}, {"type": "Feature", "geometry": {"type": "Point", "coordinates": [110.453852, 30.924771]}, "properties": {"fullname": "湖北省宜昌市秭归县梅家河乡三掌坪村村民委员会", "cuncode": "420527000000", "sheng": "湖北省", "shi": "宜昌市", "xian": "秭归县", "xiang": "梅家河乡", "cun": "三掌坪村村民委员会"}}, {"type": "Feature", "geometry": {"type": "Point", "coordinates": [110.578908, 30.988838]}, "properties": {"fullname": "湖北省宜昌市秭归县梅家河乡郑家岭村村民委员会", "cuncode": "420527000000", "sheng": "湖北省", "shi": "宜昌市", "xian": "秭归县", "xiang": "梅家河乡", "cun": "郑家岭村村民委员会"}}, {"type": "Feature", "geometry": {"type": "Point", "coordinates": [110.432951, 30.809649]}, "properties": {"fullname": "湖北省宜昌市秭归县磨坪乡磨坪村村民委员会", "cuncode": "420527000000", "sheng": "湖北省", "shi": "宜昌市", "xian": "秭归县", "xiang": "磨坪乡", "cun": "磨坪村村民委员会"}}, {"type": "Feature", "geometry": {"type": "Point", "coordinates": [110.431761, 30.855149]}, "properties": {"fullname": "湖北省宜昌市秭归县磨坪乡天井坪村村民委员会", "cuncode": "420527000000", "sheng": "湖北省", "shi": "宜昌市", "xian": "秭归县", "xiang": "磨坪乡", "cun": "天井坪村村民委员会"}}, {"type": "Feature", "geometry": {"type": "Point", "coordinates": [110.405149, 30.820388]}, "properties": {"fullname": "湖北省宜昌市秭归县磨坪乡一篮村村民委员会", "cuncode": "420527000000", "sheng": "湖北省", "shi": "宜昌市", "xian": "秭归县", "xiang": "磨坪乡", "cun": "一篮村村民委员会"}}, {"type": "Feature", "geometry": {"type": "Point", "coordinates": [110.409487, 30.794146]}, "properties": {"fullname": "湖北省宜昌市秭归县磨坪乡龙潭坪村村民委员会", "cuncode": "420527000000", "sheng": "湖北省", "shi": "宜昌市", "xian": "秭归县", "xiang": "磨坪乡", "cun": "龙潭坪村村民委员会"}}, {"type": "Feature", "geometry": {"type": "Point", "coordinates": [110.429716, 30.813338]}, "properties": {"fullname": "湖北省宜昌市秭归县磨坪乡柏家坪村村民委员会", "cuncode": "420527000000", "sheng": "湖北省", "shi": "宜昌市", "xian": "秭归县", "xiang": "磨坪乡", "cun": "柏家坪村村民委员会"}}, {"type": "Feature", "geometry": {"type": "Point", "coordinates": [110.378505, 30.806873]}, "properties": {"fullname": "湖北省宜昌市秭归县磨坪乡六家包村村民委员会", "cuncode": "420527000000", "sheng": "湖北省", "shi": "宜昌市", "xian": "秭归县", "xiang": "磨坪乡", "cun": "六家包村村民委员会"}}, {"type": "Feature", "geometry": {"type": "Point", "coordinates": [110.329109, 30.792992]}, "properties": {"fullname": "湖北省宜昌市秭归县磨坪乡送甲山村村民委员会", "cuncode": "420527000000", "sheng": "湖北省", "shi": "宜昌市", "xian": "秭归县", "xiang": "磨坪乡", "cun": "送甲山村村民委员会"}}, {"type": "Feature", "geometry": {"type": "Point", "coordinates": [110.355474, 30.814412]}, "properties": {"fullname": "湖北省宜昌市秭归县磨坪乡雁落坪村村民委员会", "cuncode": "420527000000", "sheng": "湖北省", "shi": "宜昌市", "xian": "秭归县", "xiang": "磨坪乡", "cun": "雁落坪村村民委员会"}}, {"type": "Feature", "geometry": {"type": "Point", "coordinates": [110.429716, 30.813338]}, "properties": {"fullname": "湖北省宜昌市秭归县磨坪乡银坪村村民委员会", "cuncode": "420527000000", "sheng": "湖北省", "shi": "宜昌市", "xian": "秭归县", "xiang": "磨坪乡", "cun": "银坪村村民委员会"}}, {"type": "Feature", "geometry": {"type": "Point", "coordinates": [110.396679, 30.866117]}, "properties": {"fullname": "湖北省宜昌市秭归县磨坪乡三墩岩村村民委员会", "cuncode": "420527000000", "sheng": "湖北省", "shi": "宜昌市", "xian": "秭归县", "xiang": "磨坪乡", "cun": "三墩岩村村民委员会"}}, {"type": "Feature", "geometry": {"type": "Point", "coordinates": [110.399521, 30.830805]}, "properties": {"fullname": "湖北省宜昌市秭归县磨坪乡升坪村村民委员会", "cuncode": "420527000000", "sheng": "湖北省", "shi": "宜昌市", "xian": "秭归县", "xiang": "磨坪乡", "cun": "升坪村村民委员会"}}, {"type": "Feature", "geometry": {"type": "Point", "coordinates": [110.415453, 30.8674]}, "properties": {"fullname": "湖北省宜昌市秭归县磨坪乡杨林村村民委员会", "cuncode": "420527000000", "sheng": "湖北省", "shi": "宜昌市", "xian": "秭归县", "xiang": "磨坪乡", "cun": "杨林村村民委员会"}}]}